start=new Date('2022-01-05T00:00:00.000Z').valueOf();
sats=[{"TLE_LINE2":"2 47555  53.0551  29.4156 0001497  82.4829 277.6330 15.06395308 50887","MEAN_ANOMALY":"277.6330","CENTER_NAME":"EARTH","SEMIMAJOR_AXIS":"6925.363","RCS_SIZE":"LARGE","RA_OF_ASC_NODE":"29.4156","PERIOD":"95.592","PERIAPSIS":"546.191","ARG_OF_PERICENTER":"82.4829","REV_AT_EPOCH":"5088","OBJECT_TYPE":"PAYLOAD","REF_FRAME":"TEME","MEAN_MOTION_DDOT":"0.0000000000000","SITE":"AFETR","ELEMENT_SET_NO":"999","APOAPSIS":"548.265","MEAN_MOTION_DOT":"0.00000144","NORAD_CAT_ID":"47555","EPHEMERIS_TYPE":"0","CLASSIFICATION_TYPE":"U","GP_ID":"193180667","MEAN_MOTION":"15.06395308","FILE":"3263295","OBJECT_ID":"2021-009H","EPOCH":"2022-01-04T06:55:39.637344","TIME_SYSTEM":"UTC","MEAN_ELEMENT_THEORY":"SGP4","TLE_LINE1":"1 47555U 21009H   22004.28865321  .00000144  00000-0  28547-4 0  9990","BSTAR":"0.00002854700000","ECCENTRICITY":"0.00014970","INCLINATION":"53.0551","OBJECT_NAME":"STARLINK-1954","COUNTRY_CODE":"US","LAUNCH_DATE":"2021-02-04","DECAY_DATE":null},{"ELEMENT_SET_NO":"999","MEAN_MOTION_DOT":"0.00000777","APOAPSIS":"548.115","SITE":"AFETR","MEAN_MOTION_DDOT":"0.0000000000000","REF_FRAME":"TEME","OBJECT_TYPE":"PAYLOAD","PERIAPSIS":"546.351","REV_AT_EPOCH":"5064","ARG_OF_PERICENTER":"77.4430","RA_OF_ASC_NODE":"48.0529","PERIOD":"95.593","RCS_SIZE":"LARGE","CENTER_NAME":"EARTH","SEMIMAJOR_AXIS":"6925.368","MEAN_ANOMALY":"282.6702","TLE_LINE2":"2 47556  53.0562  48.0529 0001274  77.4430 282.6702 15.06393720 50645","LAUNCH_DATE":"2021-02-04","COUNTRY_CODE":"US","DECAY_DATE":null,"ECCENTRICITY":"0.00012740","INCLINATION":"53.0562","OBJECT_NAME":"STARLINK-1955","BSTAR":"0.00007104300000","MEAN_ELEMENT_THEORY":"SGP4","TLE_LINE1":"1 47556U 21009J   22004.58905448  .00000777  00000-0  71043-4 0  9990","TIME_SYSTEM":"UTC","OBJECT_ID":"2021-009J","EPOCH":"2022-01-04T14:08:14.307072","FILE":"3264067","EPHEMERIS_TYPE":"0","NORAD_CAT_ID":"47556","MEAN_MOTION":"15.06393720","GP_ID":"193214520","CLASSIFICATION_TYPE":"U"},{"NORAD_CAT_ID":"47557","EPHEMERIS_TYPE":"0","GP_ID":"193214770","MEAN_MOTION":"15.06393498","CLASSIFICATION_TYPE":"U","FILE":"3264067","TIME_SYSTEM":"UTC","EPOCH":"2022-01-04T14:50:42.106560","OBJECT_ID":"2021-009K","MEAN_ELEMENT_THEORY":"SGP4","TLE_LINE1":"1 47557U 21009K   22004.61854290 -.00001597  00000-0 -88368-4 0  9994","BSTAR":"-0.00008836800000","ECCENTRICITY":"0.00013430","INCLINATION":"53.0563","OBJECT_NAME":"STARLINK-1956","LAUNCH_DATE":"2021-02-04","COUNTRY_CODE":"US","DECAY_DATE":null,"MEAN_ANOMALY":"292.9757","TLE_LINE2":"2 47557  53.0563  47.9417 0001343  67.1374 292.9757 15.06393498 50658","CENTER_NAME":"EARTH","SEMIMAJOR_AXIS":"6925.368","RA_OF_ASC_NODE":"47.9417","PERIOD":"95.593","RCS_SIZE":"LARGE","PERIAPSIS":"546.303","REV_AT_EPOCH":"5065","ARG_OF_PERICENTER":"67.1374","OBJECT_TYPE":"PAYLOAD","MEAN_MOTION_DDOT":"0.0000000000000","REF_FRAME":"TEME","SITE":"AFETR","ELEMENT_SET_NO":"999","MEAN_MOTION_DOT":"-0.00001597","APOAPSIS":"548.164"},{"OBJECT_NAME":"STARLINK-1957","INCLINATION":"53.0574","ECCENTRICITY":"0.00014940","DECAY_DATE":null,"LAUNCH_DATE":"2021-02-04","COUNTRY_CODE":"US","TLE_LINE1":"1 47558U 21009L   22004.33380889  .00000303  00000-0  39266-4 0  9997","MEAN_ELEMENT_THEORY":"SGP4","BSTAR":"0.00003926600000","TIME_SYSTEM":"UTC","EPOCH":"2022-01-04T08:00:41.088096","OBJECT_ID":"2021-009L","MEAN_MOTION":"15.06394058","GP_ID":"193179916","CLASSIFICATION_TYPE":"U","EPHEMERIS_TYPE":"0","NORAD_CAT_ID":"47558","FILE":"3263295","SITE":"AFETR","MEAN_MOTION_DOT":"0.00000303","APOAPSIS":"548.266","ELEMENT_SET_NO":"999","OBJECT_TYPE":"PAYLOAD","MEAN_MOTION_DDOT":"0.0000000000000","REF_FRAME":"TEME","RA_OF_ASC_NODE":"19.1995","PERIOD":"95.593","RCS_SIZE":"LARGE","REV_AT_EPOCH":"5102","ARG_OF_PERICENTER":"67.9785","PERIAPSIS":"546.197","MEAN_ANOMALY":"292.1362","TLE_LINE2":"2 47558  53.0574  19.1995 0001494  67.9785 292.1362 15.06394058 51023","SEMIMAJOR_AXIS":"6925.367","CENTER_NAME":"EARTH"},{"ELEMENT_SET_NO":"999","APOAPSIS":"548.301","MEAN_MOTION_DOT":"-0.00000979","SITE":"AFETR","REF_FRAME":"TEME","MEAN_MOTION_DDOT":"0.0000000000000","OBJECT_TYPE":"PAYLOAD","PERIAPSIS":"546.134","ARG_OF_PERICENTER":"59.6022","REV_AT_EPOCH":"5179","RCS_SIZE":"LARGE","RA_OF_ASC_NODE":"8.7773","PERIOD":"95.592","CENTER_NAME":"EARTH","SEMIMAJOR_AXIS":"6925.353","TLE_LINE2":"2 47559  53.0548   8.7773 0001565  59.6022 300.5122 15.06398708 51792","MEAN_ANOMALY":"300.5122","LAUNCH_DATE":"2021-02-04","COUNTRY_CODE":"US","DECAY_DATE":null,"ECCENTRICITY":"0.00015650","INCLINATION":"53.0548","OBJECT_NAME":"STARLINK-1958","BSTAR":"-0.00004681400000","MEAN_ELEMENT_THEORY":"SGP4","TLE_LINE1":"1 47559U 21009M   22004.43055655 -.00000979  00000-0 -46814-4 0  9997","OBJECT_ID":"2021-009M","EPOCH":"2022-01-04T10:20:00.085920","TIME_SYSTEM":"UTC","FILE":"3263436","EPHEMERIS_TYPE":"0","NORAD_CAT_ID":"47559","GP_ID":"193186233","MEAN_MOTION":"15.06398708","CLASSIFICATION_TYPE":"U"},{"TLE_LINE1":"1 47560U 21009N   22004.42319146 -.00000097  00000-0  12407-4 0  9997","MEAN_ELEMENT_THEORY":"SGP4","BSTAR":"0.00001240700000","INCLINATION":"53.0559","OBJECT_NAME":"STARLINK-1959","ECCENTRICITY":"0.00015560","DECAY_DATE":null,"COUNTRY_CODE":"US","LAUNCH_DATE":"2021-02-04","GP_ID":"193180918","MEAN_MOTION":"15.06406364","CLASSIFICATION_TYPE":"U","NORAD_CAT_ID":"47560","EPHEMERIS_TYPE":"0","FILE":"3263295","EPOCH":"2022-01-04T10:09:23.742144","OBJECT_ID":"2021-009N","TIME_SYSTEM":"UTC","OBJECT_TYPE":"PAYLOAD","REF_FRAME":"TEME","MEAN_MOTION_DDOT":"0.0000000000000","SITE":"AFETR","APOAPSIS":"548.272","MEAN_MOTION_DOT":"-0.00000097","ELEMENT_SET_NO":"999","TLE_LINE2":"2 47560  53.0559   8.8161 0001556  75.0680 285.0481 15.06406364 51186","MEAN_ANOMALY":"285.0481","SEMIMAJOR_AXIS":"6925.329","CENTER_NAME":"EARTH","RCS_SIZE":"LARGE","RA_OF_ASC_NODE":"8.8161","PERIOD":"95.592","ARG_OF_PERICENTER":"75.0680","REV_AT_EPOCH":"5118","PERIAPSIS":"546.116"},{"PERIOD":"95.592","RA_OF_ASC_NODE":"28.2806","RCS_SIZE":"LARGE","PERIAPSIS":"545.205","REV_AT_EPOCH":"5152","ARG_OF_PERICENTER":"177.8028","MEAN_ANOMALY":"182.2974","TLE_LINE2":"2 47561  53.0546  28.2806 0002915 177.8028 182.2974 15.06396731 51521","CENTER_NAME":"EARTH","SEMIMAJOR_AXIS":"6925.359","SITE":"AFETR","ELEMENT_SET_NO":"999","MEAN_MOTION_DOT":"-0.00000405","APOAPSIS":"549.242","OBJECT_TYPE":"PAYLOAD","MEAN_MOTION_DDOT":"0.0000000000000","REF_FRAME":"TEME","TIME_SYSTEM":"UTC","OBJECT_ID":"2021-009P","EPOCH":"2022-01-04T13:01:53.256000","EPHEMERIS_TYPE":"0","NORAD_CAT_ID":"47561","CLASSIFICATION_TYPE":"U","GP_ID":"193192251","MEAN_MOTION":"15.06396731","FILE":"3263954","ECCENTRICITY":"0.00029150","INCLINATION":"53.0546","OBJECT_NAME":"STARLINK-1960","LAUNCH_DATE":"2021-02-04","COUNTRY_CODE":"US","DECAY_DATE":null,"MEAN_ELEMENT_THEORY":"SGP4","TLE_LINE1":"1 47561U 21009P   22004.54297750 -.00000405  00000-0 -82479-5 0  9998","BSTAR":"-0.00000824790000"},{"MEAN_MOTION_DDOT":"0.0000000000000","REF_FRAME":"TEME","OBJECT_TYPE":"PAYLOAD","ELEMENT_SET_NO":"999","MEAN_MOTION_DOT":"-0.00001719","APOAPSIS":"548.187","SITE":"AFETR","CENTER_NAME":"EARTH","SEMIMAJOR_AXIS":"6925.360","MEAN_ANOMALY":"295.7799","TLE_LINE2":"2 47562  53.0560  28.2115 0001388  64.3333 295.7799 15.06396167 50924","PERIAPSIS":"546.264","REV_AT_EPOCH":"5092","ARG_OF_PERICENTER":"64.3333","PERIOD":"95.592","RA_OF_ASC_NODE":"28.2115","RCS_SIZE":"LARGE","BSTAR":"-0.00009651500000","MEAN_ELEMENT_THEORY":"SGP4","TLE_LINE1":"1 47562U 21009Q   22004.55772152 -.00001719  00000-0 -96515-4 0  9998","COUNTRY_CODE":"US","LAUNCH_DATE":"2021-02-04","DECAY_DATE":null,"ECCENTRICITY":"0.00013880","OBJECT_NAME":"STARLINK-1961","INCLINATION":"53.0560","FILE":"3263295","EPHEMERIS_TYPE":"0","NORAD_CAT_ID":"47562","GP_ID":"193179417","CLASSIFICATION_TYPE":"U","MEAN_MOTION":"15.06396167","TIME_SYSTEM":"UTC","EPOCH":"2022-01-04T13:23:07.139328","OBJECT_ID":"2021-009Q"},{"MEAN_ANOMALY":"295.3614","TLE_LINE2":"2 47563  53.0544  29.0065 0001426  64.7523 295.3614 15.06397540 51499","CENTER_NAME":"EARTH","SEMIMAJOR_AXIS":"6925.356","PERIOD":"95.592","RA_OF_ASC_NODE":"29.0065","RCS_SIZE":"LARGE","PERIAPSIS":"546.234","REV_AT_EPOCH":"5149","ARG_OF_PERICENTER":"64.7523","OBJECT_TYPE":"PAYLOAD","MEAN_MOTION_DDOT":"0.0000000000000","REF_FRAME":"TEME","SITE":"AFETR","ELEMENT_SET_NO":"999","MEAN_MOTION_DOT":"0.00000830","APOAPSIS":"548.209","EPHEMERIS_TYPE":"0","NORAD_CAT_ID":"47563","GP_ID":"193192252","MEAN_MOTION":"15.06397540","CLASSIFICATION_TYPE":"U","FILE":"3263954","TIME_SYSTEM":"UTC","OBJECT_ID":"2021-009R","EPOCH":"2022-01-04T09:08:21.271200","MEAN_ELEMENT_THEORY":"SGP4","TLE_LINE1":"1 47563U 21009R   22004.38080175  .00000830  00000-0  74616-4 0  9996","BSTAR":"0.00007461600000","ECCENTRICITY":"0.00014260","OBJECT_NAME":"STARLINK-1962","INCLINATION":"53.0544","COUNTRY_CODE":"US","LAUNCH_DATE":"2021-02-04","DECAY_DATE":null},{"BSTAR":"0.00001857400000","MEAN_ELEMENT_THEORY":"SGP4","TLE_LINE1":"1 47564U 21009S   22004.44807014 -.00000005  00000-0  18574-4 0  9999","COUNTRY_CODE":"US","LAUNCH_DATE":"2021-02-04","DECAY_DATE":null,"ECCENTRICITY":"0.00015550","OBJECT_NAME":"STARLINK-1963","INCLINATION":"53.0558","FILE":"3263315","NORAD_CAT_ID":"47564","EPHEMERIS_TYPE":"0","CLASSIFICATION_TYPE":"U","GP_ID":"193184191","MEAN_MOTION":"15.06396915","TIME_SYSTEM":"UTC","EPOCH":"2022-01-04T10:45:13.260096","OBJECT_ID":"2021-009S","MEAN_MOTION_DDOT":"0.0000000000000","REF_FRAME":"TEME","OBJECT_TYPE":"PAYLOAD","ELEMENT_SET_NO":"999","MEAN_MOTION_DOT":"-0.00000005","APOAPSIS":"548.300","SITE":"AFETR","CENTER_NAME":"EARTH","SEMIMAJOR_AXIS":"6925.358","MEAN_ANOMALY":"279.9534","TLE_LINE2":"2 47564  53.0558  18.6997 0001555  80.1631 279.9534 15.06396915 51649","PERIAPSIS":"546.146","REV_AT_EPOCH":"5164","ARG_OF_PERICENTER":"80.1631","PERIOD":"95.592","RA_OF_ASC_NODE":"18.6997","RCS_SIZE":"LARGE"}];
